PANDORA
1 67395U 80229J   26139.74280093  .00000000  00000-0  37770-3 0    05
2 67395  97.8050 138.8445 0004549 205.5636 243.2751 14.88030622    01
